BEIDOU-3 G1             
1 43683U 18085A   26203.21833852 -.00000108  00000+0  00000+0 0  9999
2 43683   2.9553  96.4265 0008303 357.0862  85.0488  1.00272917 28414
GSAT-29                 
1 43698U 18089A   26203.12619541  .00000088  00000+0  00000+0 0  9992
2 43698   0.0202 280.0502 0003251 181.5989 298.6941  1.00270271 28138
ES'HAIL 2               
1 43700U 18090A   26203.26296670  .00000147  00000+0  00000+0 0  9993
2 43700   0.0093  13.6727 0002485 141.0175 265.7889  1.00273507 28024
GEO-KOMPSAT-2A          
1 43823U 18100A   26202.71300580 -.00000342  00000+0  00000+0 0  9994
2 43823   0.0281 139.7111 0002459 318.0516 226.6486  1.00271774 27978
GSAT-11                 
1 43824U 18100B   26203.13000876 -.00000074  00000+0  00000+0 0  9999
2 43824   0.0858 264.5235 0008066 195.5730 320.5833  1.00271544 27828
GSAT-7A                 
1 43864U 18105A   26203.12775542  .00000029  00000+0  00000+0 0  9995
2 43864   0.1015  91.0483 0001971  22.7733 294.8083  1.00273616 27796
COSMOS 2533             
1 43867U 18107A   26203.48562757 -.00000035  00000+0  00000+0 0  9999
2 43867   0.0309 114.4008 0000257  85.9990 344.6483  1.00272109 27805
TJS-3                   
1 43874U 18110A   26202.65629442 -.00000217  00000+0  00000+0 0  9996
2 43874   2.6314  80.0780 0002725  85.1323 158.6837  1.00271065 27767
ZHONGXING-2D            
1 43920U 19001A   26203.28359346  .00000000  00000+0  00000+0 0  9990
2 43920   0.0114 222.7688 0000426 168.8122 140.5874  1.00271563 54431
HELLAS-SAT 4 & SGS-1    
1 44034U 19007A   26203.26556671  .00000156  00000+0  00000+0 0  9993
2 44034   0.0643 127.3547 0006016  19.2126 288.0572  1.00272630 27713
GSAT-31                 
1 44035U 19007B   26203.12480874  .00000128  00000+0  00000+0 0  9999
2 44035   0.0309 100.0605 0000842 108.6804 183.9593  1.00274777 27319
NUSANTARA SATU          
1 44048U 19009A   26203.00168399 -.00000232  00000+0  00000+0 0  9994
2 44048   0.0311 119.8691 0004599   4.9763 321.5092  1.00270298 27110
ZHONGXING-6C            
1 44067U 19012A   26203.28376679 -.00000332  00000+0  00000+0 0  9992
2 44067   0.0629  69.3256 0015122 345.8467 117.4783  1.00272257 27094
WGS 10 (USA 291)        
1 44071U 19014A   26203.12723542  .00000050  00000+0  00000+0 0  9993
2 44071   0.0143  74.0087 0000270   2.0633 329.9049  1.00271981 26963
TIANLIAN 2-01           
1 44076U 19017A   26203.14628193 -.00000104  00000+0  00000+0 0  9990
2 44076   0.6277  83.0441 0001749  74.4360 272.0823  1.00271683 26998
ARABSAT-6A              
1 44186U 19021A   26203.03124965  .00000156  00000+0  00000+0 0  9999
2 44186   0.0444   7.3224 0002899 239.6978  94.4745  1.00263942 26500
BEIDOU-2 G8             
1 44231U 19027A   26203.28654014 -.00000246  00000+0  00000+0 0  9997
2 44231   1.7452  74.5117 0009614 283.9588 189.2273  1.00270216 26439
YAMAL 601               
1 44307U 19031A   26203.12498207  .00000123  00000+0  00000+0 0  9992
2 44307   0.0187  94.7100 0002673  24.3173 274.8332  1.00272630 26272
AT&T T-16               
1 44333U 19034A   26202.66764053 -.00000113  00000+0  00000+0 0  9997
2 44333   0.0150  76.5465 0000508 295.6923  66.6677  1.00269706 25979
EUTELSAT 7C             
1 44334U 19034B   26203.19280741  .00000051  00000+0  00000+0 0  9994
2 44334   0.0759 182.0587 0003491 282.9305 271.3628  1.00270569  7183
BEIDOU-3 IGSO-2         
1 44337U 19035A   26202.76760661 -.00000106  00000+0  00000+0 0  9996
2 44337  55.2573 158.5594 0039050 212.8700 322.7485  1.00289985 26016
COSMOS 2539             
1 44457U 19048A   26203.18895838  .00000084  00000+0  00000+0 0  9999
2 44457   0.0291 109.4343 0000643  80.1873 190.3378  1.00274408 25578
EDRS-C                  
1 44475U 19049A   26202.57328847 -.00000261  00000+0  00000+0 0  9991
2 44475   0.0181 119.4309 0001120  11.0875 157.6865  1.00270946 25553
INTELSAT 39 (IS-39)     
1 44476U 19049B   26203.12758208  .00000036  00000+0  00000+0 0  9991
2 44476   0.0140  35.3340 0000927 325.0726  47.3423  1.00271307 25475
AMOS-17                 
1 44479U 19050A   26202.87897795  .00000111  00000+0  00000+0 0  9996
2 44479   0.0166  19.8132 0001570  94.7676 158.4756  1.00270485 25537
AEHF-5 (USA 292)        
1 44481U 19051A   26203.06919704 -.00000254  00000+0  00000+0 0  9996
2 44481   1.4254 338.9589 0064686 357.3190  81.5452  1.00272445 25616
EUTELSAT 5 WEST B       
1 44624U 19067A   26203.11432201 -.00000039  00000+0  00000+0 0  9991
2 44624   0.0738 325.7618 0003246 153.5338 216.7111  1.00271941 24780
TJS-4                   
1 44637U 19070A   26203.14350167 -.00000168  00000+0  00000+0 0  9995
2 44637   0.0925 259.2828 0000155   0.6400 175.2199  1.00273643 24881
TIBA-1                  
1 44800U 19080A   26203.26496005  .00000159  00000+0  00000+0 0  9992
2 44800   0.0505 359.3157 0002349 136.2628 295.3507  1.00276928 24414
INMARSAT GX5            
1 44801U 19080B   26203.18878505  .00000078  00000+0  00000+0 0  9993
2 44801   0.0375  24.6644 0002292 102.4251 251.8060  1.00271536  7138
JCSAT-18 (KACIFIC 1)    
1 44868U 19091A   26202.82267062 -.00000198  00000+0  00000+0 0  9992
2 44868   0.0463 242.1872 0000410 231.0672 272.4504  1.00275631 24350
