OBJECT_NAME,OBJECT_ID,EPOCH,MEAN_MOTION,ECCENTRICITY,INCLINATION,RA_OF_ASC_NODE,ARG_OF_PERICENTER,MEAN_ANOMALY,EPHEMERIS_TYPE,CLASSIFICATION_TYPE,NORAD_CAT_ID,ELEMENT_SET_NO,REV_AT_EPOCH,BSTAR,MEAN_MOTION_DOT,MEAN_MOTION_DDOT
BEIDOU-3 G1,2018-085A,2026-07-22T05:14:24.448128,1.00272917,.00083033,2.9553,96.4265,357.0862,85.0488,0,U,43683,999,2841,0,-.108E-5,0
GSAT-29,2018-089A,2026-07-22T03:01:43.283424,1.00270271,.00032519,0.0202,280.0502,181.5989,298.6941,0,U,43698,999,2813,0,.88E-6,0
ES'HAIL 2,2018-090A,2026-07-22T06:18:40.322880,1.00273507,.00024856,0.0093,13.6727,141.0175,265.7889,0,U,43700,999,2802,0,.147E-5,0
GEO-KOMPSAT-2A,2018-100A,2026-07-21T17:06:43.701120,1.00271774,.00024597,0.0281,139.7111,318.0516,226.6486,0,U,43823,999,2797,0,-.342E-5,0
GSAT-11,2018-100B,2026-07-22T03:07:12.756864,1.00271544,.00080667,0.0858,264.5235,195.5730,320.5833,0,U,43824,999,2782,0,-.74E-6,0
GSAT-7A,2018-105A,2026-07-22T03:03:58.068288,1.00273616,.00019719,0.1015,91.0483,22.7733,294.8083,0,U,43864,999,2779,0,.29E-6,0
COSMOS 2533,2018-107A,2026-07-22T11:39:18.222048,1.00272109,.0000257,0.0309,114.4008,85.9990,344.6483,0,U,43867,999,2780,0,-.35E-6,0
TJS-3,2018-110A,2026-07-21T15:45:03.837888,1.00271065,.0002725,2.6314,80.0780,85.1323,158.6837,0,U,43874,999,2776,0,-.217E-5,0
ZHONGXING-2D,2019-001A,2026-07-22T06:48:22.474944,1.00271563,.00004267,0.0114,222.7688,168.8122,140.5874,0,U,43920,999,5443,0,0,0
HELLAS-SAT 4 & SGS-1,2019-007A,2026-07-22T06:22:24.963744,1.00272630,.00060161,0.0643,127.3547,19.2126,288.0572,0,U,44034,999,2771,0,.156E-5,0
GSAT-31,2019-007B,2026-07-22T02:59:43.475136,1.00274777,.00008426,0.0309,100.0605,108.6804,183.9593,0,U,44035,999,2731,0,.128E-5,0
NUSANTARA SATU,2019-009A,2026-07-22T00:02:25.496736,1.00270298,.00045998,0.0311,119.8691,4.9763,321.5092,0,U,44048,999,2711,0,-.232E-5,0
ZHONGXING-6C,2019-012A,2026-07-22T06:48:37.450656,1.00272257,.00151226,0.0629,69.3256,345.8467,117.4783,0,U,44067,999,2709,0,-.332E-5,0
WGS 10 (USA 291),2019-014A,2026-07-22T03:03:13.140288,1.00271981,.00002709,0.0143,74.0087,2.0633,329.9049,0,U,44071,999,2696,0,.5E-6,0
TIANLIAN 2-01,2019-017A,2026-07-22T03:30:38.758752,1.00271683,.00017499,0.6277,83.0441,74.4360,272.0823,0,U,44076,999,2699,0,-.104E-5,0
ARABSAT-6A,2019-021A,2026-07-22T00:44:59.969760,1.00263942,.00028998,0.0444,7.3224,239.6978,94.4745,0,U,44186,999,2650,0,.156E-5,0
BEIDOU-2 G8,2019-027A,2026-07-22T06:52:37.068096,1.00270216,.0009614,1.7452,74.5117,283.9588,189.2273,0,U,44231,999,2643,0,-.246E-5,0
YAMAL 601,2019-031A,2026-07-22T02:59:58.450848,1.00272630,.00026735,0.0187,94.7100,24.3173,274.8332,0,U,44307,999,2627,0,.123E-5,0
AT&T T-16,2019-034A,2026-07-21T16:01:24.141792,1.00269706,.00005081,0.0150,76.5465,295.6923,66.6677,0,U,44333,999,2597,0,-.113E-5,0
EUTELSAT 7C,2019-034B,2026-07-22T04:37:38.560224,1.00270569,.00034915,0.0759,182.0587,282.9305,271.3628,0,U,44334,999,718,0,.51E-6,0
BEIDOU-3 IGSO-2,2019-035A,2026-07-21T18:25:21.211104,1.00289985,.00390505,55.2573,158.5594,212.8700,322.7485,0,U,44337,999,2601,0,-.106E-5,0
COSMOS 2539,2019-048A,2026-07-22T04:32:06.004032,1.00274408,.00006439,0.0291,109.4343,80.1873,190.3378,0,U,44457,999,2557,0,.84E-6,0
EDRS-C,2019-049A,2026-07-21T13:45:32.123808,1.00270946,.00011204,0.0181,119.4309,11.0875,157.6865,0,U,44475,999,2555,0,-.261E-5,0
INTELSAT 39 (IS-39),2019-049B,2026-07-22T03:03:43.091712,1.00271307,.00009271,0.0140,35.3340,325.0726,47.3423,0,U,44476,999,2547,0,.36E-6,0
AMOS-17,2019-050A,2026-07-21T21:05:43.694880,1.00270485,.00015708,0.0166,19.8132,94.7676,158.4756,0,U,44479,999,2553,0,.111E-5,0
AEHF-5 (USA 292),2019-051A,2026-07-22T01:39:38.624256,1.00272445,.00646863,1.4254,338.9589,357.3190,81.5452,0,U,44481,999,2561,0,-.254E-5,0
EUTELSAT 5 WEST B,2019-067A,2026-07-22T02:44:37.421664,1.00271941,.00032463,0.0738,325.7618,153.5338,216.7111,0,U,44624,999,2478,0,-.39E-6,0
TJS-4,2019-070A,2026-07-22T03:26:38.544288,1.00273643,.00001552,0.0925,259.2828,0.6400,175.2199,0,U,44637,999,2488,0,-.168E-5,0
TIBA-1,2019-080A,2026-07-22T06:21:32.548320,1.00276928,.00023497,0.0505,359.3157,136.2628,295.3507,0,U,44800,999,2441,0,.159E-5,0
INMARSAT GX5,2019-080B,2026-07-22T04:31:51.028320,1.00271536,.00022929,0.0375,24.6644,102.4251,251.8060,0,U,44801,999,713,0,.78E-6,0
JCSAT-18 (KACIFIC 1),2019-091A,2026-07-21T19:44:38.741568,1.00275631,.00004104,0.0463,242.1872,231.0672,272.4504,0,U,44868,999,2435,0,-.198E-5,0
